NORAD_CAT_ID,OBJECT_NAME,OBJECT_TYPE,EPOCH,MEAN_MOTION,ECCENTRICITY,INCLINATION,RA_OF_ASC_NODE,ARG_OF_PERICENTER,MEAN_ANOMALY,BSTAR,MEAN_MOTION_DOT,MEAN_MOTION_DDOT,TLE_LINE0,TLE_LINE1,TLE_LINE2,SEMIMAJOR_AXIS,PERIOD,APOGEE,PERIGEE,DECAYED
55945.0,STARLINK-5925,PAYLOAD,2023-11-02 08:53:28,14.98332128,0.0002754,69.9991,288.5243,265.5586,94.5258,2.2858e-05,1.8e-06,0.0,0 STARLINK-5925,1 55945U 23037AH  23306.37047252  .00000180  00000-0  22858-4 0  9995,2 55945  69.9991 288.5243 0002754 265.5586  94.5258 14.98332128 35417,6950.186,96.107,573.965,570.137,0.0
55945.0,STARLINK-5925,PAYLOAD,2023-11-02 16:54:09,14.98332417,0.0003035,70.0003,287.6828,272.305,87.7762,-2.4156e-05,-3.81e-06,0.0,0 STARLINK-5925,1 55945U 23037AH  23306.70427265 -.00000381  00000-0 -24156-4 0  9996,2 55945  70.0003 287.6828 0003035 272.3050  87.7762 14.98332417 35468,6950.185,96.107,574.16,569.941,0.0
55945.0,STARLINK-5925,PAYLOAD,2023-11-03 05:43:13,14.98317341,0.0002567,69.9992,286.3365,264.9992,95.0874,0.00035083,4.094e-05,0.0,0 STARLINK-5925,1 55945U 23037AH  23307.23835162  .00004094  00000-0  35083-3 0  9997,2 55945  69.9992 286.3365 0002567 264.9992  95.0874 14.98317341 35886,6950.232,96.108,573.881,570.313,0.0
55945.0,STARLINK-5925,PAYLOAD,2023-11-03 08:55:29,14.9833348,0.0002668,69.9993,285.9999,264.3406,95.7449,8.1031e-05,8.74e-06,0.0,0 STARLINK-5925,1 55945U 23037AH  23307.37186877  .00000874  00000-0  81031-4 0  9991,2 55945  69.9993 285.9999 0002668 264.3406  95.7449 14.98333480 35901,6950.182,96.107,573.901,570.193,0.0
55945.0,STARLINK-5925,PAYLOAD,2023-11-04 04:09:12,14.98254692,0.0002596,70.0003,283.9802,238.4953,121.5953,-0.00085064,-0.00010208,0.0,0 STARLINK-5925,1 55945U 23037AH  23308.17305635 -.00010208  00000-0 -85064-3 0  9998,2 55945  70.0003 283.9802 0002596 238.4953 121.5953 14.98254692 36025,6950.426,96.112,574.095,570.486,0.0
55945.0,STARLINK-5925,PAYLOAD,2023-11-04 08:57:30,14.98333474,0.0002859,69.9992,283.4747,271.5099,88.5732,5.9586e-05,6.18e-06,0.0,0 STARLINK-5925,1 55945U 23037AH  23308.37326845  .00000618  00000-0  59586-4 0  9999,2 55945  69.9992 283.4747 0002859 271.5099  88.5732 14.98333474 36059,6950.182,96.107,574.034,570.06,0.0
55945.0,STARLINK-5925,PAYLOAD,2023-11-04 15:22:02,14.98363646,0.0002903,70.0002,282.8013,275.0348,85.0479,-0.00056343,-6.815e-05,0.0,0 STARLINK-5925,1 55945U 23037AH  23308.64030250 -.00006815  00000-0 -56343-3 0  9995,2 55945  70.0002 282.8013 0002903 275.0348  85.0479 14.98363646 36097,6950.089,96.105,573.971,569.936,0.0
55945.0,STARLINK-5925,PAYLOAD,2023-11-05 04:11:01,14.98406529,0.0002678,70.0006,281.4545,262.235,97.8505,0.00075712,8.97e-05,0.0,0 STARLINK-5925,1 55945U 23037AH  23309.17432647  .00008970  00000-0  75712-3 0  9993,2 55945  70.0006 281.4545 0002678 262.2350  97.8505 14.98406529 36174,6949.956,96.102,573.682,569.96,0.0
55945.0,STARLINK-5925,PAYLOAD,2023-11-05 07:23:22,14.98338327,0.000269,69.9994,281.1185,262.8403,97.245,5.7375e-05,5.92e-06,0.0,0 STARLINK-5925,1 55945U 23037AH  23309.30790383  .00000592  00000-0  57375-4 0  9990,2 55945  69.9994 281.1185 0002690 262.8403  97.2450 14.98338327 36198,6950.167,96.106,573.902,570.163,0.0
55945.0,STARLINK-5925,PAYLOAD,2023-11-05 15:24:03,14.98349888,0.000283,69.9999,280.2759,275.5032,84.5804,-0.0002482,-3.055e-05,0.0,0 STARLINK-5925,1 55945U 23037AH  23309.64170202 -.00003055  00000-0 -24820-3 0  9996,2 55945  69.9999 280.2759 0002830 275.5032  84.5804 14.98349888 35909,6950.131,96.106,573.963,570.03,0.0
55945.0,STARLINK-5925,PAYLOAD,2023-11-06 04:13:06,14.98345658,0.0002583,69.9995,278.9291,268.4607,91.6257,0.00019666,2.255e-05,0.0,0 STARLINK-5925,1 55945U 23037AH  23310.17577256  .00002255  00000-0  19666-3 0  9997,2 55945  69.9995 278.9291 0002583 268.4607  91.6257 14.98345658 36323,6950.144,96.106,573.805,570.214,0.0
55945.0,STARLINK-5925,PAYLOAD,2023-11-06 07:25:22,14.98350516,0.0002657,69.9993,278.5923,269.9354,90.1501,0.00023364,2.697e-05,0.0,0 STARLINK-5925,1 55945U 23037AH  23310.30928732  .00002697  00000-0  23364-3 0  9991,2 55945  69.9993 278.5923 0002657 269.9354  90.1501 14.98350516 36006,6950.129,96.106,573.841,570.148,0.0
55945.0,STARLINK-5925,PAYLOAD,2023-11-06 15:26:05,14.98321015,0.0003156,69.9994,277.7507,269.1965,90.8832,-0.00015568,-1.95e-05,0.0,0 STARLINK-5925,1 55945U 23037AH  23310.64311415 -.00001950  00000-0 -15568-3 0  9992,2 55945  69.9994 277.7507 0003156 269.1965  90.8832 14.98321015 36399,6950.221,96.108,574.279,569.892,0.0
55945.0,STARLINK-5925,PAYLOAD,2023-11-07 04:15:11,14.98307302,0.0002801,69.9993,276.4046,262.408,97.6761,-0.00028642,-3.507e-05,0.0,0 STARLINK-5925,1 55945U 23037AH  23311.17721396 -.00003507  00000-0 -28642-3 0  9991,2 55945  69.9993 276.4046 0002801 262.4080  97.6761 14.98307302 36470,6950.263,96.108,574.075,570.181,0.0
55945.0,STARLINK-5925,PAYLOAD,2023-11-07 07:27:27,14.98306456,0.0002669,69.9996,276.0668,255.9421,104.1441,-0.00022941,-2.827e-05,0.0,0 STARLINK-5925,1 55945U 23037AH  23311.31073434 -.00002827  00000-0 -22941-3 0  9990,2 55945  69.9996 276.0668 0002669 255.9421 104.1441 14.98306456 36150,6950.266,96.109,573.986,570.276,0.0
55945.0,STARLINK-5925,PAYLOAD,2023-11-07 15:28:07,14.9831807,0.0003113,69.9993,275.2259,264.2942,95.7862,-0.00021022,-2.6e-05,0.0,0 STARLINK-5925,1 55945U 23037AH  23311.64452889 -.00002600  00000-0 -21022-3 0  9999,2 55945  69.9993 275.2259 0003113 264.2942  95.7862 14.98318070 36540,6950.23,96.108,574.258,569.931,0.0
55945.0,STARLINK-5925,PAYLOAD,2023-11-08 04:17:11,14.98329395,0.0002598,69.9995,273.8799,258.5265,101.5602,-5.7343e-05,-7.77e-06,0.0,0 STARLINK-5925,1 55945U 23037AH  23312.17860219 -.00000777  00000-0 -57343-4 0  9997,2 55945  69.9995 273.8799 0002598 258.5265 101.5602 14.98329395 36624,6950.195,96.107,573.865,570.254,0.0
55945.0,STARLINK-5925,PAYLOAD,2023-11-08 07:29:27,14.98332243,0.0002802,69.9996,273.5447,263.4793,96.6047,-7.5936e-05,-9.99e-06,0.0,0 STARLINK-5925,1 55945U 23037AH  23312.31212122 -.00000999  00000-0 -75936-4 0  9991,2 55945  69.9996 273.5447 0002802 263.4793  96.6047 14.98332243 36309,6950.186,96.107,573.998,570.104,0.0
55945.0,STARLINK-5925,PAYLOAD,2023-11-08 15:30:06,14.98344908,0.0002312,70.0012,272.7064,294.7666,65.3253,7.9263e-06,2e-08,0.0,0 STARLINK-5925,1 55945U 23037AH  23312.64591358  .00000002  00000-0  79263-5 0  9999,2 55945  70.0012 272.7064 0002312 294.7666  65.3253 14.98344908 36694,6950.147,96.106,573.619,570.405,0.0
55945.0,STARLINK-5925,PAYLOAD,2023-11-08 21:54:39,14.98321304,0.0003261,69.9998,272.0286,260.5957,99.4833,0.0003851,4.504e-05,0.0,0 STARLINK-5925,1 55945U 23037AH  23312.91295423  .00004504  00000-0  38510-3 0  9992,2 55945  69.9998 272.0286 0003261 260.5957  99.4833 14.98321304 36395,6950.22,96.108,574.351,569.818,0.0
55945.0,STARLINK-5925,PAYLOAD,2023-11-09 07:31:28,14.98308117,0.0002866,69.9994,271.019,260.0037,100.0798,8.2695e-05,8.93e-06,0.0,0 STARLINK-5925,1 55945U 23037AH  23313.31352877  .00000893  00000-0  82695-4 0  9995,2 55945  69.9994 271.0190 0002866 260.0037 100.0798 14.98308117 36798,6950.261,96.108,574.118,570.134,0.0
55945.0,STARLINK-5925,PAYLOAD,2023-11-09 21:56:40,14.98332236,0.0002916,70.0004,269.5037,258.4201,101.6631,5.7199e-05,5.9e-06,0.0,0 STARLINK-5925,1 55945U 23037AH  23313.91435622  .00000590  00000-0  57199-4 0  9996,2 55945  70.0004 269.5037 0002916 258.4201 101.6631 14.98332236 36540,6950.186,96.107,574.078,570.024,0.0
55945.0,STARLINK-5925,PAYLOAD,2023-11-10 02:45:04,14.98325914,0.0002805,70.0001,269.0013,255.2073,104.8775,0.00010206,1.125e-05,0.0,0 STARLINK-5925,1 55945U 23037AH  23314.11463814  .00001125  00000-0  10206-3 0  9995,2 55945  70.0001 269.0013 0002805 255.2073 104.8775 14.98325914 36915,6950.206,96.107,574.02,570.121,0.0
55945.0,STARLINK-5925,PAYLOAD,2023-11-10 07:33:28,14.98333725,0.0002542,70.0003,268.4937,265.5919,94.495,5.5472e-05,5.69e-06,0.0,0 STARLINK-5925,1 55945U 23037AH  23314.31491548  .00000569  00000-0  55472-4 0  9998,2 55945  70.0003 268.4937 0002542 265.5919  94.4950 14.98333725 36600,6950.181,96.107,573.813,570.28,0.0
55945.0,STARLINK-5925,PAYLOAD,2023-11-10 21:58:41,14.98339941,0.0002911,69.9998,266.979,263.6123,96.4705,-0.0001424,-1.792e-05,0.0,0 STARLINK-5925,1 55945U 23037AH  23314.91575256 -.00001792  00000-0 -14240-3 0  9991,2 55945  69.9998 266.9790 0002911 263.6123  96.4705 14.98339941 36691,6950.162,96.106,574.05,570.004,0.0
55945.0,STARLINK-5925,PAYLOAD,2023-11-11 05:59:21,14.98324591,0.0002799,70.0002,266.1378,253.1471,106.9381,0.00017404,1.984e-05,0.0,0 STARLINK-5925,1 55945U 23037AH  23315.24955176  .00001984  00000-0  17404-3 0  9997,2 55945  70.0002 266.1378 0002799 253.1471 106.9381 14.98324591 36746,6950.21,96.107,574.02,570.129,0.0
55945.0,STARLINK-5925,PAYLOAD,2023-11-11 22:00:41,14.98316369,0.000248,70.0004,264.4547,249.8859,110.2033,0.00019665,2.253e-05,0.0,0 STARLINK-5925,1 55945U 23037AH  23315.91715134  .00002253  00000-0  19665-3 0  9990,2 55945  70.0004 264.4547 0002480 249.8859 110.2033 14.98316369 36843,6950.235,96.108,573.824,570.376,0.0
55945.0,STARLINK-5925,PAYLOAD,2023-11-12 02:49:05,14.98328107,0.0002467,69.9996,263.9485,256.7542,103.3342,2.875e-05,2.5e-06,0.0,0 STARLINK-5925,1 55945U 23037AH  23316.11743033  .00000250  00000-0  28750-4 0  9993,2 55945  69.9996 263.9485 0002467 256.7542 103.3342 14.98328107 37217,6950.199,96.107,573.778,570.349,0.0
55945.0,STARLINK-5925,PAYLOAD,2023-11-12 14:02:02,14.98329071,0.0002361,70.0003,262.771,263.9324,96.1566,2.4925e-07,-9e-07,0.0,0 STARLINK-5925,1 55945U 23037AH  23316.58475168 -.00000090  00000-0  24925-6 0  9990,2 55945  70.0003 262.7710 0002361 263.9324  96.1566 14.98329071 36945,6950.196,96.107,573.702,570.42,0.0
55945.0,STARLINK-5925,PAYLOAD,2023-11-12 22:02:42,14.98331694,0.0002762,69.9993,261.9285,268.7989,91.2854,1.2794e-05,6e-07,0.0,0 STARLINK-5925,1 55945U 23037AH  23316.91854855  .00000060  00000-0  12794-4 0  9996,2 55945  69.9993 261.9285 0002762 268.7989  91.2854 14.98331694 36998,6950.188,96.107,573.972,570.133,0.0
